[{"OBJECT_NAME":"STARLINK-35646","OBJECT_ID":"2025-281M","EPOCH":"2026-03-09T02:13:05.380896","MEAN_MOTION":15.27595831,"ECCENTRICITY":0.00019534,"INCLINATION":43.0034,"RA_OF_ASC_NODE":346.8924,"ARG_OF_PERICENTER":259.9846,"MEAN_ANOMALY":100.0785,"EPHEMERIS_TYPE":0,"CLASSIFICATION_TYPE":"U","NORAD_CAT_ID":66859,"ELEMENT_SET_NO":999,"REV_AT_EPOCH":1609,"BSTAR":0.0015373956,"MEAN_MOTION_DOT":0.00042308,"MEAN_MOTION_DDOT":0},{"OBJECT_NAME":"CZ-4C R\/B","OBJECT_ID":"2022-039B","EPOCH":"2026-03-09T15:51:32.485824","MEAN_MOTION":15.03008334,"ECCENTRICITY":0.0113659,"INCLINATION":98.2525,"RA_OF_ASC_NODE":105.9247,"ARG_OF_PERICENTER":45.8852,"MEAN_ANOMALY":315.1654,"EPHEMERIS_TYPE":0,"CLASSIFICATION_TYPE":"U","NORAD_CAT_ID":52258,"ELEMENT_SET_NO":999,"REV_AT_EPOCH":21291,"BSTAR":0.00022979194,"MEAN_MOTION_DOT":3.483e-5,"MEAN_MOTION_DDOT":0}]
